{"type": "FeatureCollection", "features": [ {"type": "Feature", "properties": {"norad_id": 66620, "name": "STARLINK-35936", "group": "last-30-days", "lat": 46.95077577179534, "lon": -74.8532791413782, "alt_km": 411.82734136309864, "timestamp": "2025-12-18T17:50:13.699618+00:00", "meta": {"OBJECT_NAME": "STARLINK-35936", "OBJECT_ID": "2025-271D", "EPOCH": "2025-12-18T06:30:37.138752", "MEAN_MOTION": 15.49329114, "ECCENTRICITY": 8.502e-05, "INCLINATION": 53.1601, "RA_OF_ASC_NODE": 160.7823, "ARG_OF_PERICENTER": 76.6318, "MEAN_ANOMALY": 283.4786, "EPHEMERIS_TYPE": 0, "CLASSIFICATION_TYPE": "U", "NORAD_CAT_ID": 66620, "ELEMENT_SET_NO": 999, "REV_AT_EPOCH": 506, "BSTAR": 0.00071542612, "MEAN_MOTION_DOT": 0.00039571, "MEAN_MOTION_DDOT": 0}, "tle": {"line1": "1 66620U 25271D   25352.27126318  .00039571  00000+0  71543-3 0  9991", "line2": "2 66620  53.1601 160.7823 0000850  76.6318 283.4786 15.49329114  5067"}}, "geometry": {"type": "Point", "coordinates": [-74.8532791413782, 46.95077577179534]}}, {"type": "Feature", "properties": {"norad_id": 66621, "name": "STARLINK-35847", "group": "last-30-days", "lat": 8.69960528398788, "lon": -28.18076574695835, "alt_km": 418.18175419941144, "timestamp": "2025-12-18T17:50:13.699631+00:00", "meta": {"OBJECT_NAME": "STARLINK-35847", "OBJECT_ID": "2025-271E", "EPOCH": "2025-12-18T06:16:26.313024", "MEAN_MOTION": 15.49353563, "ECCENTRICITY": 9.456e-05, "INCLINATION": 53.1596, "RA_OF_ASC_NODE": 160.7113, "ARG_OF_PERICENTER": 77.4059, "MEAN_ANOMALY": 282.7056, "EPHEMERIS_TYPE": 0, "CLASSIFICATION_TYPE": "U", "NORAD_CAT_ID": 66621, "ELEMENT_SET_NO": 999, "REV_AT_EPOCH": 506, "BSTAR": 0.00086958215, "MEAN_MOTION_DOT": 0.0004829, "MEAN_MOTION_DDOT": 0}, "tle": {"line1": "1 66621U 25271E   25352.26141566  .00048290  00000+0  86958-3 0  9997", "line2": "2 66621  53.1596 160.7113 0000945  77.4059 282.7056 15.49353563  5066"}}, "geometry": {"type": "Point", "coordinates": [-28.18076574695835, 8.69960528398788]}}, {"type": "Feature", "properties": {"norad_id": 66622, "name": "STARLINK-35950", "group": "last-30-days", "lat": 52.22994400661644, "lon": -126.04444073890224, "alt_km": 440.6930868185791, "timestamp": "2025-12-18T17:50:13.699644+00:00", "meta": {"OBJECT_NAME": "STARLINK-35950", "OBJECT_ID": "2025-271F", "EPOCH": "2025-12-18T06:00:02.999808", "MEAN_MOTION": 15.41653631, "ECCENTRICITY": 0.00015776, "INCLINATION": 53.1602, "RA_OF_ASC_NODE": 160.9153, "ARG_OF_PERICENTER": 89.8358, "MEAN_ANOMALY": 134.9054, "EPHEMERIS_TYPE": 0, "CLASSIFICATION_TYPE": "U", "NORAD_CAT_ID": 66622, "ELEMENT_SET_NO": 999, "REV_AT_EPOCH": 512, "BSTAR": -0.063008004, "MEAN_MOTION_DOT": -0.02397099, "MEAN_MOTION_DDOT": 0}, "tle": {"line1": "1 66622U 25271F   25352.25003472 -.02397099  00000+0 -63008-1 0  9997", "line2": "2 66622  53.1602 160.9153 0001577  89.8358 134.9054 15.41653631  5126"}}, "geometry": {"type": "Point", "coordinates": [-126.04444073890224, 52.22994400661644]}}, {"type": "Feature", "properties": {"norad_id": 66623, "name": "STARLINK-35920", "group": "last-30-days", "lat": 23.263729068301124, "lon": 177.49151713157104, "alt_km": 444.4065684389643, "timestamp": "2025-12-18T17:50:13.699654+00:00", "meta": {"OBJECT_NAME": "STARLINK-35920", "OBJECT_ID": "2025-271G", "EPOCH": "2025-12-18T06:00:02.999808", "MEAN_MOTION": 15.39594449, "ECCENTRICITY": 8.877e-05, "INCLINATION": 53.1598, "RA_OF_ASC_NODE": 161.0128, "ARG_OF_PERICENTER": 96.4168, "MEAN_ANOMALY": 78.2111, "EPHEMERIS_TYPE": 0, "CLASSIFICATION_TYPE": "U", "NORAD_CAT_ID": 66623, "ELEMENT_SET_NO": 999, "REV_AT_EPOCH": 512, "BSTAR": 0.0010519091, "MEAN_MOTION_DOT": 0.00041872, "MEAN_MOTION_DDOT": 0}, "tle": {"line1": "1 66623U 25271G   25352.25003472  .00041872  00000+0  10519-2 0  9999", "line2": "2 66623  53.1598 161.0128 0000887  96.4168  78.2111 15.39594449  5123"}}, "geometry": {"type": "Point", "coordinates": [177.49151713157104, 23.263729068301124]}}, {"type": "Feature", "properties": {"norad_id": 66624, "name": "STARLINK-35927", "group": "last-30-days", "lat": 41.73368658010455, "lon": -63.468659547840936, "alt_km": 412.439243467953, "timestamp": "2025-12-18T17:50:13.699666+00:00", "meta": {"OBJECT_NAME": "STARLINK-35927", "OBJECT_ID": "2025-271H", "EPOCH": "2025-12-18T06:28:08.802912", "MEAN_MOTION": 15.49344315, "ECCENTRICITY": 8.36e-05, "INCLINATION": 53.1597, "RA_OF_ASC_NODE": 160.7697, "ARG_OF_PERICENTER": 82.8283, "MEAN_ANOMALY": 277.2821, "EPHEMERIS_TYPE": 0, "CLASSIFICATION_TYPE": "U", "NORAD_CAT_ID": 66624, "ELEMENT_SET_NO": 999, "REV_AT_EPOCH": 506, "BSTAR": 0.0017346453, "MEAN_MOTION_DOT": 0.00097357, "MEAN_MOTION_DDOT": 0}, "tle": {"line1": "1 66624U 25271H   25352.26954633  .00097357  00000+0  17346-2 0  9999", "line2": "2 66624  53.1597 160.7697 0000836  82.8283 277.2821 15.49344315  5069"}}, "geometry": {"type": "Point", "coordinates": [-63.468659547840936, 41.73368658010455]}}, {"type": "Feature", "properties": {"norad_id": 66625, "name": "STARLINK-35929", "group": "last-30-days", "lat": 41.827069511598545, "lon": -63.63938851579486, "alt_km": 415.99096724939045, "timestamp": "2025-12-18T17:50:13.699677+00:00", "meta": {"OBJECT_NAME": "STARLINK-35929", "OBJECT_ID": "2025-271J", "EPOCH": "2025-12-18T06:27:35.132832", "MEAN_MOTION": 15.48054242, "ECCENTRICITY": 0.00033539, "INCLINATION": 53.1597, "RA_OF_ASC_NODE": 160.7656, "ARG_OF_PERICENTER": 64.9356, "MEAN_ANOMALY": 295.2, "EPHEMERIS_TYPE": 0, "CLASSIFICATION_TYPE": "U", "NORAD_CAT_ID": 66625, "ELEMENT_SET_NO": 999, "REV_AT_EPOCH": 506, "BSTAR": -0.0023362783, "MEAN_MOTION_DOT": -0.00122881, "MEAN_MOTION_DDOT": 0}, "tle": {"line1": "1 66625U 25271J   25352.26915663 -.00122881  00000+0 -23363-2 0  9999", "line2": "2 66625  53.1597 160.7656 0003353  64.9356 295.2000 15.48054242  5069"}}, "geometry": {"type": "Point", "coordinates": [-63.63938851579486, 41.827069511598545]}}, {"type": "Feature", "properties": {"norad_id": 66626, "name": "STARLINK-35902", "group": "last-30-days", "lat": 41.173357422858224, "lon": -160.38926294416484, "alt_km": 440.97683759373285, "timestamp": "2025-12-18T17:50:13.699858+00:00", "meta": {"OBJECT_NAME": "STARLINK-35902", "OBJECT_ID": "2025-271K", "EPOCH": "2025-12-18T06:00:02.999808", "MEAN_MOTION": 15.39579811, "ECCENTRICITY": 0.00014104, "INCLINATION": 53.1602, "RA_OF_ASC_NODE": 160.9619, "ARG_OF_PERICENTER": 83.3718, "MEAN_ANOMALY": 117.0381, "EPHEMERIS_TYPE": 0, "CLASSIFICATION_TYPE": "U", "NORAD_CAT_ID": 66626, "ELEMENT_SET_NO": 999, "REV_AT_EPOCH": 512, "BSTAR": 0.0010243982, "MEAN_MOTION_DOT": 0.0004074, "MEAN_MOTION_DDOT": 0}, "tle": {"line1": "1 66626U 25271K   25352.25003472  .00040740  00000+0  10244-2 0  9990", "line2": "2 66626  53.1602 160.9619 0001410  83.3718 117.0381 15.39579811  5121"}}, "geometry": {"type": "Point", "coordinates": [-160.38926294416484, 41.173357422858224]}}, {"type": "Feature", "properties": {"norad_id": 66627, "name": "STARLINK-35904", "group": "last-30-days", "lat": 50.33435753928763, "lon": -86.16961673610648, "alt_km": 434.48997890244027, "timestamp": "2025-12-18T17:50:13.699871+00:00", "meta": {"OBJECT_NAME": "STARLINK-35904", "OBJECT_ID": "2025-271L", "EPOCH": "2025-12-18T06:00:02.999808", "MEAN_MOTION": 15.43561759, "ECCENTRICITY": 0.00012511, "INCLINATION": 53.1603, "RA_OF_ASC_NODE": 160.8713, "ARG_OF_PERICENTER": 93.6865, "MEAN_ANOMALY": 152.0152, "EPHEMERIS_TYPE": 0, "CLASSIFICATION_TYPE": "U", "NORAD_CAT_ID": 66627, "ELEMENT_SET_NO": 999, "REV_AT_EPOCH": 496, "BSTAR": -0.050446302, "MEAN_MOTION_DOT": -0.02046128, "MEAN_MOTION_DDOT": 0}, "tle": {"line1": "1 66627U 25271L   25352.25003472 -.02046128  00000+0 -50446-1 0  9998", "line2": "2 66627  53.1603 160.8713 0001251  93.6865 152.0152 15.43561759  4960"}}, "geometry": {"type": "Point", "coordinates": [-86.16961673610648, 50.33435753928763]}}, {"type": "Feature", "properties": {"norad_id": 66628, "name": "STARLINK-35862", "group": "last-30-days", "lat": 35.62923939759232, "lon": -54.01897885234853, "alt_km": 413.3519007836612, "timestamp": "2025-12-18T17:50:13.699883+00:00", "meta": {"OBJECT_NAME": "STARLINK-35862", "OBJECT_ID": "2025-271M", "EPOCH": "2025-12-18T06:25:42.557088", "MEAN_MOTION": 15.49375302, "ECCENTRICITY": 0.00020689, "INCLINATION": 53.1596, "RA_OF_ASC_NODE": 160.7574, "ARG_OF_PERICENTER": 52.7687, "MEAN_ANOMALY": 307.3511, "EPHEMERIS_TYPE": 0, "CLASSIFICATION_TYPE": "U", "NORAD_CAT_ID": 66628, "ELEMENT_SET_NO": 999, "REV_AT_EPOCH": 506, "BSTAR": 0.0025571372, "MEAN_MOTION_DOT": 0.00144774, "MEAN_MOTION_DDOT": 0}, "tle": {"line1": "1 66628U 25271M   25352.26785367  .00144774  00000+0  25571-2 0  9994", "line2": "2 66628  53.1596 160.7574 0002068  52.7687 307.3511 15.49375302  5060"}}, "geometry": {"type": "Point", "coordinates": [-54.01897885234853, 35.62923939759232]}}, {"type": "Feature", "properties": {"norad_id": 66629, "name": "STARLINK-35956", "group": "last-30-days", "lat": 31.727042014731236, "lon": -49.14446627379919, "alt_km": 408.74403743386756, "timestamp": "2025-12-18T17:50:13.699894+00:00", "meta": {"OBJECT_NAME": "STARLINK-35956", "OBJECT_ID": "2025-271N", "EPOCH": "2025-12-17T22:40:33.711168", "MEAN_MOTION": 15.50068802, "ECCENTRICITY": 0.00077656, "INCLINATION": 53.1591, "RA_OF_ASC_NODE": 162.2961, "ARG_OF_PERICENTER": 69.9848, "MEAN_ANOMALY": 290.1997, "EPHEMERIS_TYPE": 0, "CLASSIFICATION_TYPE": "U", "NORAD_CAT_ID": 66629, "ELEMENT_SET_NO": 999, "REV_AT_EPOCH": 501, "BSTAR": 0.0066522353, "MEAN_MOTION_DOT": 0.00399833, "MEAN_MOTION_DDOT": 0}, "tle": {"line1": "1 66629U 25271N   25351.94483462  .00399833  00000+0  66522-2 0  9999", "line2": "2 66629  53.1591 162.2961 0007765  69.9848 290.1997 15.50068802  5019"}}, "geometry": {"type": "Point", "coordinates": [-49.14446627379919, 31.727042014731236]}}]}